LEMUR-2-STARLIGHT       
1 66783U 25276DY  26192.73211157  .00003858  00000+0  31969-3 0  9993
2 66783  97.5233 262.5314 0014758  57.4560 302.8087 14.99328464 33875
LEMUR-2-TARTIFLETTE     
1 66784U 25276DZ  26192.73047929  .00003401  00000+0  28252-3 0  9993
2 66784  97.5236 262.5376 0013860  65.4884 294.7783 14.99314524 33872
LEMUR-2-VUKASIN         
1 66785U 25276EA  26192.77031164  .00002931  00000+0  23704-3 0  9996
2 66785  97.5240 262.9290 0003577  64.9856 295.1739 15.00527711 33833
LEMUR-2-HOTSPUR-TOM     
1 66786U 25276EB  26192.72465754  .00003174  00000+0  26466-3 0  9996
2 66786  97.5223 262.5077 0013834  56.6609 303.5937 14.99219626 33806
LEMUR-2-MYRA            
1 66787U 25276EC  26192.73562243  .00003600  00000+0  28885-3 0  9990
2 66787  97.5222 262.8153 0018537  64.7520 295.5623 15.00564390 33896
TWILIGHT-1 OBJECT B     
1 67364U 26004B   26192.50585705  .00001025  00000+0  11821-3 0  9996
2 67364  97.8072 190.6963 0009955  56.5620 303.6547 14.87785770 26906
LEMUR-2-MARIO-SOUSA     
1 67365U 26004C   26192.58532224  .00002318  00000+0  25391-3 0  9996
2 67365  97.7995 190.7666 0010006  67.2731 292.9543 14.88708670 26925
LEMUR-2-SONNENBLUME     
1 67367U 26004E   26192.78919712  .00001547  00000+0  17247-3 0  9995
2 67367  97.7998 190.9418 0009558  67.7455 292.4775 14.88442703 26952
